{"type": "FeatureCollection", "features": [ {"type": "Feature", "properties": {"norad_id": 34141, "name": "COSMOS 2251 DEB", "group": "cosmos-2251-debris", "lat": 63.35615292548279, "lon": 146.85084821939049, "alt_km": 692.1031011909163, "timestamp": "2025-12-27T04:40:45.898815+00:00", "meta": {"OBJECT_NAME": "COSMOS 2251 DEB", "OBJECT_ID": "1993-036LN", "EPOCH": "2025-12-26T23:18:43.559136", "MEAN_MOTION": 14.49386297, "ECCENTRICITY": 0.00465153, "INCLINATION": 74.0117, "RA_OF_ASC_NODE": 2.1228, "ARG_OF_PERICENTER": 83.2454, "MEAN_ANOMALY": 301.6285, "EPHEMERIS_TYPE": 0, "CLASSIFICATION_TYPE": "U", "NORAD_CAT_ID": 34141, "ELEMENT_SET_NO": 999, "REV_AT_EPOCH": 87900, "BSTAR": 0.001726955, "MEAN_MOTION_DOT": 6.673e-05, "MEAN_MOTION_DDOT": 0}, "tle": {"line1": "1 34141U 93036LN  25360.97133749  .00006673  00000+0  17270-2 0  9993", "line2": "2 34141  74.0117   2.1228 0046515  83.2454 301.6285 14.49386297879009"}}, "geometry": {"type": "Point", "coordinates": [146.85084821939049, 63.35615292548279]}}, {"type": "Feature", "properties": {"norad_id": 34270, "name": "COSMOS 2251 DEB", "group": "cosmos-2251-debris", "lat": 4.311205543941293, "lon": 97.53162225273013, "alt_km": 688.7595514543254, "timestamp": "2025-12-27T04:40:45.898825+00:00", "meta": {"OBJECT_NAME": "COSMOS 2251 DEB", "OBJECT_ID": "1993-036LQ", "EPOCH": "2025-12-26T21:19:54.797088", "MEAN_MOTION": 14.65264846, "ECCENTRICITY": 0.00482146, "INCLINATION": 74.0108, "RA_OF_ASC_NODE": 279.36, "ARG_OF_PERICENTER": 67.8685, "MEAN_ANOMALY": 292.7591, "EPHEMERIS_TYPE": 0, "CLASSIFICATION_TYPE": "U", "NORAD_CAT_ID": 34270, "ELEMENT_SET_NO": 999, "REV_AT_EPOCH": 89303, "BSTAR": 0.00049759638, "MEAN_MOTION_DOT": 2.698e-05, "MEAN_MOTION_DDOT": 0}, "tle": {"line1": "1 34270U 93036LQ  25360.88882867  .00002698  00000+0  49760-3 0  9991", "line2": "2 34270  74.0108 279.3600 0048214  67.8685 292.7591 14.65264846893038"}}, "geometry": {"type": "Point", "coordinates": [97.53162225273013, 4.311205543941293]}}, {"type": "Feature", "properties": {"norad_id": 34271, "name": "COSMOS 2251 DEB", "group": "cosmos-2251-debris", "lat": 53.50002535464861, "lon": -165.98178003024103, "alt_km": 664.5367121523022, "timestamp": "2025-12-27T04:40:45.898835+00:00", "meta": {"OBJECT_NAME": "COSMOS 2251 DEB", "OBJECT_ID": "1993-036LR", "EPOCH": "2025-12-26T22:37:18.676128", "MEAN_MOTION": 14.71092305, "ECCENTRICITY": 0.00179984, "INCLINATION": 74.0214, "RA_OF_ASC_NODE": 171.7266, "ARG_OF_PERICENTER": 224.8235, "MEAN_ANOMALY": 295.8874, "EPHEMERIS_TYPE": 0, "CLASSIFICATION_TYPE": "U", "NORAD_CAT_ID": 34271, "ELEMENT_SET_NO": 999, "REV_AT_EPOCH": 88443, "BSTAR": 0.0027275812, "MEAN_MOTION_DOT": 0.00016823, "MEAN_MOTION_DDOT": 0}, "tle": {"line1": "1 34271U 93036LR  25360.94257727  .00016823  00000+0  27276-2 0  9992", "line2": "2 34271  74.0214 171.7266 0017998 224.8235 295.8874 14.71092305884439"}}, "geometry": {"type": "Point", "coordinates": [-165.98178003024103, 53.50002535464861]}}, {"type": "Feature", "properties": {"norad_id": 34273, "name": "COSMOS 2251 DEB", "group": "cosmos-2251-debris", "lat": -59.83536581788238, "lon": 30.279154533958625, "alt_km": 698.9754465730548, "timestamp": "2025-12-27T04:40:45.898845+00:00", "meta": {"OBJECT_NAME": "COSMOS 2251 DEB", "OBJECT_ID": "1993-036LT", "EPOCH": "2025-12-26T12:50:56.279040", "MEAN_MOTION": 14.61344007, "ECCENTRICITY": 0.001327, "INCLINATION": 74.0357, "RA_OF_ASC_NODE": 61.0479, "ARG_OF_PERICENTER": 186.2896, "MEAN_ANOMALY": 240.9182, "EPHEMERIS_TYPE": 0, "CLASSIFICATION_TYPE": "U", "NORAD_CAT_ID": 34273, "ELEMENT_SET_NO": 999, "REV_AT_EPOCH": 88823, "BSTAR": 0.00085763, "MEAN_MOTION_DOT": 4.216e-05, "MEAN_MOTION_DDOT": 0}, "tle": {"line1": "1 34273U 93036LT  25360.53537360  .00004216  00000+0  85763-3 0  9992", "line2": "2 34273  74.0357  61.0479 0013270 186.2896 240.9182 14.61344007888232"}}, "geometry": {"type": "Point", "coordinates": [30.279154533958625, -59.83536581788238]}}, {"type": "Feature", "properties": {"norad_id": 34274, "name": "COSMOS 2251 DEB", "group": "cosmos-2251-debris", "lat": -23.143373806129617, "lon": -132.24258791517516, "alt_km": 667.931616517325, "timestamp": "2025-12-27T04:40:45.898855+00:00", "meta": {"OBJECT_NAME": "COSMOS 2251 DEB", "OBJECT_ID": "1993-036LU", "EPOCH": "2025-12-26T09:49:41.735712", "MEAN_MOTION": 14.64932186, "ECCENTRICITY": 0.0021167, "INCLINATION": 74.0039, "RA_OF_ASC_NODE": 42.2274, "ARG_OF_PERICENTER": 190.8598, "MEAN_ANOMALY": 192.4467, "EPHEMERIS_TYPE": 0, "CLASSIFICATION_TYPE": "U", "NORAD_CAT_ID": 34274, "ELEMENT_SET_NO": 999, "REV_AT_EPOCH": 88876, "BSTAR": 0.0010046, "MEAN_MOTION_DOT": 5.366e-05, "MEAN_MOTION_DDOT": 0}, "tle": {"line1": "1 34274U 93036LU  25360.40951083  .00005366  00000+0  10046-2 0  9999", "line2": "2 34274  74.0039  42.2274 0021167 190.8598 192.4467 14.64932186888767"}}, "geometry": {"type": "Point", "coordinates": [-132.24258791517516, -23.143373806129617]}}, {"type": "Feature", "properties": {"norad_id": 34276, "name": "COSMOS 2251 DEB", "group": "cosmos-2251-debris", "lat": 67.01177404714548, "lon": -164.64220589107882, "alt_km": 696.671690332405, "timestamp": "2025-12-27T04:40:45.898865+00:00", "meta": {"OBJECT_NAME": "COSMOS 2251 DEB", "OBJECT_ID": "1993-036LW", "EPOCH": "2025-12-26T13:57:01.187136", "MEAN_MOTION": 14.57315229, "ECCENTRICITY": 0.0022015, "INCLINATION": 74.0234, "RA_OF_ASC_NODE": 59.0032, "ARG_OF_PERICENTER": 204.4532, "MEAN_ANOMALY": 284.0843, "EPHEMERIS_TYPE": 0, "CLASSIFICATION_TYPE": "U", "NORAD_CAT_ID": 34276, "ELEMENT_SET_NO": 999, "REV_AT_EPOCH": 88794, "BSTAR": 0.00069567, "MEAN_MOTION_DOT": 3.131e-05, "MEAN_MOTION_DDOT": 0}, "tle": {"line1": "1 34276U 93036LW  25360.58126374  .00003131  00000+0  69567-3 0  9998", "line2": "2 34276  74.0234  59.0032 0022015 204.4532 284.0843 14.57315229887947"}}, "geometry": {"type": "Point", "coordinates": [-164.64220589107882, 67.01177404714548]}}, {"type": "Feature", "properties": {"norad_id": 34297, "name": "COSMOS 2251 DEB", "group": "cosmos-2251-debris", "lat": 50.90126914457902, "lon": 57.08251907115145, "alt_km": 776.6952870277537, "timestamp": "2025-12-27T04:40:45.898875+00:00", "meta": {"OBJECT_NAME": "COSMOS 2251 DEB", "OBJECT_ID": "1993-036MT", "EPOCH": "2025-12-26T10:15:55.052928", "MEAN_MOTION": 14.36640578, "ECCENTRICITY": 0.0017793, "INCLINATION": 74.0483, "RA_OF_ASC_NODE": 259.0982, "ARG_OF_PERICENTER": 325.3074, "MEAN_ANOMALY": 154.1728, "EPHEMERIS_TYPE": 0, "CLASSIFICATION_TYPE": "U", "NORAD_CAT_ID": 34297, "ELEMENT_SET_NO": 999, "REV_AT_EPOCH": 88261, "BSTAR": 0.00013276, "MEAN_MOTION_DOT": 3.65e-06, "MEAN_MOTION_DDOT": 0}, "tle": {"line1": "1 34297U 93036MT  25360.42772052  .00000365  00000+0  13276-3 0  9996", "line2": "2 34297  74.0483 259.0982 0017793 325.3074 154.1728 14.36640578882616"}}, "geometry": {"type": "Point", "coordinates": [57.08251907115145, 50.90126914457902]}}, {"type": "Feature", "properties": {"norad_id": 34301, "name": "COSMOS 2251 DEB", "group": "cosmos-2251-debris", "lat": 57.42170624003446, "lon": 164.62967200302828, "alt_km": 612.0669513114508, "timestamp": "2025-12-27T04:40:45.898891+00:00", "meta": {"OBJECT_NAME": "COSMOS 2251 DEB", "OBJECT_ID": "1993-036MX", "EPOCH": "2025-12-26T12:33:41.976000", "MEAN_MOTION": 14.85255875, "ECCENTRICITY": 0.0009678, "INCLINATION": 74.0061, "RA_OF_ASC_NODE": 139.2942, "ARG_OF_PERICENTER": 203.9823, "MEAN_ANOMALY": 227.9901, "EPHEMERIS_TYPE": 0, "CLASSIFICATION_TYPE": "U", "NORAD_CAT_ID": 34301, "ELEMENT_SET_NO": 999, "REV_AT_EPOCH": 88605, "BSTAR": 0.0032937, "MEAN_MOTION_DOT": 0.00028381, "MEAN_MOTION_DDOT": 0}, "tle": {"line1": "1 34301U 93036MX  25360.52340250  .00028381  00000+0  32937-2 0  9996", "line2": "2 34301  74.0061 139.2942 0009678 203.9823 227.9901 14.85255875886055"}}, "geometry": {"type": "Point", "coordinates": [164.62967200302828, 57.42170624003446]}}, {"type": "Feature", "properties": {"norad_id": 34302, "name": "COSMOS 2251 DEB", "group": "cosmos-2251-debris", "lat": -54.749912541992096, "lon": 73.47367643741889, "alt_km": 710.7426231694863, "timestamp": "2025-12-27T04:40:45.898902+00:00", "meta": {"OBJECT_NAME": "COSMOS 2251 DEB", "OBJECT_ID": "1993-036MY", "EPOCH": "2025-12-26T17:51:58.156704", "MEAN_MOTION": 14.39383486, "ECCENTRICITY": 0.00795784, "INCLINATION": 74.1784, "RA_OF_ASC_NODE": 97.953, "ARG_OF_PERICENTER": 309.3279, "MEAN_ANOMALY": 179.0398, "EPHEMERIS_TYPE": 0, "CLASSIFICATION_TYPE": "U", "NORAD_CAT_ID": 34302, "ELEMENT_SET_NO": 999, "REV_AT_EPOCH": 87922, "BSTAR": 0.00064412435, "MEAN_MOTION_DOT": 2.053e-05, "MEAN_MOTION_DDOT": 0}, "tle": {"line1": "1 34302U 93036MY  25360.74442311  .00002053  00000+0  64412-3 0  9994", "line2": "2 34302  74.1784  97.9530 0079578 309.3279 179.0398 14.39383486879221"}}, "geometry": {"type": "Point", "coordinates": [73.47367643741889, -54.749912541992096]}}, {"type": "Feature", "properties": {"norad_id": 34303, "name": "COSMOS 2251 DEB", "group": "cosmos-2251-debris", "lat": -14.419741476152572, "lon": 84.86715359534185, "alt_km": 804.7205582697752, "timestamp": "2025-12-27T04:40:45.898912+00:00", "meta": {"OBJECT_NAME": "COSMOS 2251 DEB", "OBJECT_ID": "1993-036MZ", "EPOCH": "2025-12-26T19:49:59.858400", "MEAN_MOTION": 14.54644604, "ECCENTRICITY": 0.0135655, "INCLINATION": 74.0047, "RA_OF_ASC_NODE": 261.3361, "ARG_OF_PERICENTER": 36.1964, "MEAN_ANOMALY": 28.7437, "EPHEMERIS_TYPE": 0, "CLASSIFICATION_TYPE": "U", "NORAD_CAT_ID": 34303, "ELEMENT_SET_NO": 999, "REV_AT_EPOCH": 88167, "BSTAR": 0.0015352817, "MEAN_MOTION_DOT": 7.399e-05, "MEAN_MOTION_DDOT": 0}, "tle": {"line1": "1 34303U 93036MZ  25360.82638725  .00007399  00000+0  15353-2 0  9997", "line2": "2 34303  74.0047 261.3361 0135655  36.1964  28.7437 14.54644604881672"}}, "geometry": {"type": "Point", "coordinates": [84.86715359534185, -14.419741476152572]}}]}